NORAD_CAT_ID,OBJECT_NAME,OBJECT_TYPE,EPOCH,MEAN_MOTION,ECCENTRICITY,INCLINATION,RA_OF_ASC_NODE,ARG_OF_PERICENTER,MEAN_ANOMALY,BSTAR,MEAN_MOTION_DOT,MEAN_MOTION_DDOT,TLE_LINE0,TLE_LINE1,TLE_LINE2,SEMIMAJOR_AXIS,PERIOD,APOGEE,PERIGEE,DECAYED
51994.0,STARLINK-3647,PAYLOAD,2024-05-10 10:26:38,15.0884224,0.0001281,53.2158,139.0314,91.5446,268.5693,4.9303e-06,-2.09e-06,0.0,0 STARLINK-3647,1 51994U 22025AQ  24131.43516411 -.00000209  00000-0  49303-5 0  9991,2 51994  53.2158 139.0314 0001281  91.5446 268.5693 15.08842240120035,6917.874,95.437,540.625,538.852,0.0
51994.0,STARLINK-3647,PAYLOAD,2024-05-11 03:55:51,15.08853658,0.0001244,53.216,135.7609,89.9375,270.1759,0.00018246,2.618e-05,0.0,0 STARLINK-3647,1 51994U 22025AQ  24132.16379213  .00002618  00000-0  18246-3 0  9994,2 51994  53.2160 135.7609 0001244  89.9375 270.1759 15.08853658121677,6917.839,95.437,540.564,538.843,0.0
51994.0,STARLINK-3647,PAYLOAD,2024-05-11 16:38:55,15.08865943,0.0001257,53.2162,133.3817,89.9859,270.1277,0.00026788,3.981e-05,0.0,0 STARLINK-3647,1 51994U 22025AQ  24132.69369814  .00003981  00000-0  26788-3 0  9992,2 51994  53.2162 133.3817 0001257  89.9859 270.1277 15.08865943121759,6917.801,95.436,540.536,538.797,0.0
51994.0,STARLINK-3647,PAYLOAD,2024-05-12 05:22:03,15.08794942,0.000142,53.2166,131.0033,89.5299,270.5855,-0.00099973,-0.00016144,0.0,0 STARLINK-3647,1 51994U 22025AQ  24133.22365164 -.00016144  00000-0 -99973-3 0  9999,2 51994  53.2166 131.0033 0001420  89.5299 270.5855 15.08794942121839,6918.018,95.44,540.865,538.901,0.0
51994.0,STARLINK-3647,PAYLOAD,2024-05-12 06:57:26,15.08794055,0.000137,53.2166,130.7062,87.9481,272.1668,-0.00098346,-0.00015886,0.0,0 STARLINK-3647,1 51994U 22025AQ  24133.28989314 -.00015886  00000-0 -98346-3 0  9999,2 51994  53.2166 130.7062 0001370  87.9481 272.1668 15.08794055120313,6918.021,95.44,540.834,538.938,0.0
51994.0,STARLINK-3647,PAYLOAD,2024-05-12 16:29:46,15.08793792,0.0001514,53.2175,128.9213,89.7026,270.4139,-0.00087295,-0.00014136,0.0,0 STARLINK-3647,1 51994U 22025AQ  24133.68733991 -.00014136  00000-0 -87295-3 0  9999,2 51994  53.2175 128.9213 0001514  89.7026 270.4139 15.08793792121902,6918.022,95.44,540.934,538.839,0.0
51994.0,STARLINK-3647,PAYLOAD,2024-05-13 05:12:52,15.08801038,0.0001345,53.214,126.5376,51.0766,309.0345,-0.0002745,-4.649e-05,0.0,0 STARLINK-3647,1 51994U 22025AQ  24134.21727004 -.00004649  00000-0 -27450-3 0  9992,2 51994  53.2140 126.5376 0001345  51.0766 309.0345 15.08801038121982,6917.999,95.44,540.795,538.934,0.0
51994.0,STARLINK-3647,PAYLOAD,2024-05-13 09:59:01,15.0880613,0.000108,53.2137,125.648,62.9263,297.1839,-0.00020214,-3.5e-05,0.0,0 STARLINK-3647,1 51994U 22025AQ  24134.41599344 -.00003500  00000-0 -20214-3 0  9994,2 51994  53.2137 125.6480 0001080  62.9263 297.1839 15.08806130120480,6917.984,95.44,540.596,539.102,0.0
51994.0,STARLINK-3647,PAYLOAD,2024-05-13 16:20:34,15.08825391,0.0001611,53.2175,124.4629,102.8566,257.2607,0.00028682,4.278e-05,0.0,0 STARLINK-3647,1 51994U 22025AQ  24134.68094965  .00004278  00000-0  28682-3 0  9990,2 51994  53.2175 124.4629 0001611 102.8566 257.2607 15.08825391122059,6917.925,95.438,540.905,538.676,0.0
51994.0,STARLINK-3647,PAYLOAD,2024-05-14 08:14:25,15.08839279,0.0001319,53.2161,121.4879,85.4498,274.6645,0.0009333,0.00014596,0.0,0 STARLINK-3647,1 51994U 22025AQ  24135.34334917  .00014596  00000-0  93330-3 0  9994,2 51994  53.2161 121.4879 0001319  85.4498 274.6645 15.08839279122159,6917.883,95.438,540.66,538.835,0.0
51994.0,STARLINK-3647,PAYLOAD,2024-05-14 16:11:20,15.08845564,0.0001334,53.2159,120.001,86.2289,273.8855,0.00081896,0.00012772,0.0,0 STARLINK-3647,1 51994U 22025AQ  24135.67454819  .00012772  00000-0  81896-3 0  9992,2 51994  53.2159 120.0010 0001334  86.2289 273.8855 15.08845564120675,6917.863,95.437,540.651,538.806,0.0
51994.0,STARLINK-3647,PAYLOAD,2024-05-15 06:29:47,15.08869414,0.0001365,53.2157,117.3249,84.3641,275.7507,0.00059115,9.14e-05,0.0,0 STARLINK-3647,1 51994U 22025AQ  24136.27069327  .00009140  00000-0  59115-3 0  9999,2 51994  53.2157 117.3249 0001365  84.3641 275.7507 15.08869414120766,6917.79,95.436,540.6,538.711,0.0
51994.0,STARLINK-3647,PAYLOAD,2024-05-15 22:23:38,15.08859562,0.0001429,53.2151,114.3497,97.3687,262.7467,8.9646e-05,1.14e-05,0.0,0 STARLINK-3647,1 51994U 22025AQ  24136.93308751  .00001140  00000-0  89646-4 0  9994,2 51994  53.2151 114.3497 0001429  97.3687 262.7467 15.08859562120862,6917.821,95.436,540.674,538.697,0.0
51994.0,STARLINK-3647,PAYLOAD,2024-05-16 04:45:11,15.08857637,0.0001397,53.2152,113.1601,100.6148,259.5001,7.2327e-05,8.64e-06,0.0,0 STARLINK-3647,1 51994U 22025AQ  24137.19804541  .00000864  00000-0  72327-4 0  9991,2 51994  53.2152 113.1601 0001397 100.6148 259.5001 15.08857637122435,6917.826,95.436,540.658,538.725,0.0
51994.0,STARLINK-3647,PAYLOAD,2024-05-16 15:52:53,15.08849844,0.0001371,53.2147,111.0775,104.5172,255.5972,2.8084e-05,1.59e-06,0.0,0 STARLINK-3647,1 51994U 22025AQ  24137.66172489  .00000159  00000-0  28084-4 0  9990,2 51994  53.2147 111.0775 0001371 104.5172 255.5972 15.08849844122502,6917.85,95.437,540.664,538.767,0.0
51994.0,STARLINK-3647,PAYLOAD,2024-05-16 22:14:25,15.08849191,0.0001362,53.2145,109.888,104.2869,255.8274,9.39e-06,-1.38e-06,0.0,0 STARLINK-3647,1 51994U 22025AQ  24137.92668426 -.00000138  00000-0  93900-5 0  9998,2 51994  53.2145 109.8880 0001362 104.2869 255.8274 15.08849191121010,6917.852,95.437,540.66,538.775,0.0
51994.0,STARLINK-3647,PAYLOAD,2024-05-17 04:35:57,15.08856073,0.0001489,53.2163,108.6991,99.8515,260.2645,3.0271e-05,1.94e-06,0.0,0 STARLINK-3647,1 51994U 22025AQ  24138.19163946  .00000194  00000-0  30271-4 0  9997,2 51994  53.2163 108.6991 0001489  99.8515 260.2645 15.08856073121050,6917.831,95.437,540.726,538.666,0.0
51994.0,STARLINK-3647,PAYLOAD,2024-05-18 04:26:45,15.08837205,0.0001233,53.2148,104.2389,89.967,270.1464,6.9165e-05,8.13e-06,0.0,0 STARLINK-3647,1 51994U 22025AQ  24139.18525298  .00000813  00000-0  69165-4 0  9991,2 51994  53.2148 104.2389 0001233  89.9670 270.1464 15.08837205122736,6917.889,95.438,540.607,538.901,0.0
51994.0,STARLINK-3647,PAYLOAD,2024-05-18 21:56:01,15.08827598,0.0001299,53.2154,100.9692,82.9296,277.1844,-1.5918e-05,-5.41e-06,0.0,0 STARLINK-3647,1 51994U 22025AQ  24139.91390167 -.00000541  00000-0 -15918-4 0  9994,2 51994  53.2154 100.9692 0001299  82.9296 277.1844 15.08827598122847,6917.918,95.438,540.682,538.885,0.0
51994.0,STARLINK-3647,PAYLOAD,2024-05-19 04:17:33,15.0883993,0.0001251,53.2155,99.7778,88.8705,271.243,0.00010423,1.371e-05,0.0,0 STARLINK-3647,1 51994U 22025AQ  24140.17885561  .00001371  00000-0  10423-3 0  9996,2 51994  53.2155  99.7778 0001251  88.8705 271.2430 15.08839930122889,6917.881,95.438,540.611,538.88,0.0
51994.0,STARLINK-3647,PAYLOAD,2024-05-19 07:28:19,15.08839262,0.0001252,53.2153,99.1831,90.9638,269.1497,0.00023653,3.478e-05,0.0,0 STARLINK-3647,1 51994U 22025AQ  24140.31133760  .00003478  00000-0  23653-3 0  9998,2 51994  53.2153  99.1831 0001252  90.9638 269.1497 15.08839262121371,6917.883,95.438,540.614,538.882,0.0
51994.0,STARLINK-3647,PAYLOAD,2024-05-20 05:43:43,15.08846262,0.0001501,53.2168,95.0197,92.9252,267.1912,0.00024125,3.554e-05,0.0,0 STARLINK-3647,1 51994U 22025AQ  24141.23869740  .00003554  00000-0  24125-3 0  9994,2 51994  53.2168  95.0197 0001501  92.9252 267.1912 15.08846262123042,6917.861,95.437,540.765,538.688,0.0
51994.0,STARLINK-3647,PAYLOAD,2024-05-21 03:59:07,15.08841095,0.0001372,53.2166,90.8599,83.5994,276.5155,0.00010514,1.386e-05,0.0,0 STARLINK-3647,1 51994U 22025AQ  24142.16606352  .00001386  00000-0  10514-3 0  9993,2 51994  53.2166  90.8599 0001372  83.5994 276.5155 15.08841095123181,6917.877,95.437,540.691,538.793,0.0
51994.0,STARLINK-3647,PAYLOAD,2024-05-21 05:34:30,15.0884343,0.0001375,53.2164,90.5626,91.3991,268.7158,0.00013947,1.933e-05,0.0,0 STARLINK-3647,1 51994U 22025AQ  24142.23230206  .00001933  00000-0  13947-3 0  9993,2 51994  53.2164  90.5626 0001375  91.3991 268.7158 15.08843430121666,6917.87,95.437,540.686,538.784,0.0
51994.0,STARLINK-3647,PAYLOAD,2024-05-22 03:49:54,15.08857539,0.000133,53.2167,86.3972,93.3542,266.7603,0.00037218,5.643e-05,0.0,0 STARLINK-3647,1 51994U 22025AQ  24143.15965451  .00005643  00000-0  37218-3 0  9991,2 51994  53.2167  86.3972 0001330  93.3542 266.7603 15.08857539123335,6917.827,95.436,540.612,538.772,0.0
51994.0,STARLINK-3647,PAYLOAD,2024-05-22 05:25:17,15.08858662,0.0001324,53.2168,86.1003,97.677,262.4372,0.00038305,5.817e-05,0.0,0 STARLINK-3647,1 51994U 22025AQ  24143.22589339  .00005817  00000-0  38305-3 0  9997,2 51994  53.2168  86.1003 0001324  97.6770 262.4372 15.08858662121817,6917.823,95.436,540.604,538.772,0.0
51994.0,STARLINK-3647,PAYLOAD,2024-05-23 05:16:04,15.08848147,0.0001471,53.2175,81.6397,88.4991,271.6169,0.00014989,2.099e-05,0.0,0 STARLINK-3647,1 51994U 22025AQ  24144.21949891  .00002099  00000-0  14989-3 0  9991,2 51994  53.2175  81.6397 0001471  88.4991 271.6169 15.08848147123496,6917.855,95.437,540.738,538.703,0.0
51994.0,STARLINK-3647,PAYLOAD,2024-05-24 05:06:51,15.08857231,0.0001479,53.2175,77.1739,90.0762,270.04,0.00015996,2.26e-05,0.0,0 STARLINK-3647,1 51994U 22025AQ  24145.21309127  .00002260  00000-0  15996-3 0  9993,2 51994  53.2175  77.1739 0001479  90.0762 270.0400 15.08857231122112,6917.828,95.436,540.716,538.67,0.0
51994.0,STARLINK-3647,PAYLOAD,2024-05-24 19:25:20,15.08836201,0.0001793,53.2172,74.5017,85.3209,274.7988,-2.9173e-05,-7.52e-06,0.0,0 STARLINK-3647,1 51994U 22025AQ  24145.80926377 -.00000752  00000-0 -29173-4 0  9999,2 51994  53.2172  74.5017 0001793  85.3209 274.7988 15.08836201123736,6917.892,95.438,540.997,538.517,0.0
51994.0,STARLINK-3647,PAYLOAD,2024-05-24 22:36:06,15.08840587,0.0002394,53.2172,73.9055,120.2417,239.8812,-7.8835e-06,-4.14e-06,0.0,0 STARLINK-3647,1 51994U 22025AQ  24145.94173954 -.00000414  00000-0 -78835-5 0  9994,2 51994  53.2172  73.9055 0002394 120.2417 239.8812 15.08840587122222,6917.879,95.438,541.4,538.087,0.0
